QIANFAN-65              
1 62795U 25016L   26027.57625323  .00000130  00000+0  18330-3 0  9994
2 62795  88.9735  98.3206 0013625 202.5883 157.4670 13.50987336 53434
QIANFAN-66              
1 62796U 25016M   26027.60498531  .00000131  00000+0  18465-3 0  9998
2 62796  88.9755  98.2967 0014880 198.7152 161.3454 13.50992175 53485
QIANFAN-67              
1 62797U 25016N   26027.60908832  .00000131  00000+0  18454-3 0  9997
2 62797  88.9745  98.3173 0014610 205.6584 154.3844 13.50996434 53457
QIANFAN-68              
1 62798U 25016P   26027.60089749  .00000134  00000+0  18859-3 0  9997
2 62798  88.9749  98.3650 0014728 203.9048 156.1421 13.50988389 53437
QIANFAN-69              
1 62799U 25016Q   26027.61734496  .00000140  00000+0  19761-3 0  9995
2 62799  88.9727  98.2229 0015428 205.3441 154.6955 13.50988687 53476
QIANFAN-70              
1 62800U 25016R   26027.63384499  .00000132  00000+0  18507-3 0  9992
2 62800  88.9748  98.3694 0015368 195.3925 164.6761 13.50992497 53433
QIANFAN-71              
1 62801U 25016S   26027.62965311  .00000148  00000+0  21029-3 0  9990
2 62801  88.9742  98.3465 0015218 208.8907 151.1403 13.50991878 53434
QIANFAN-72              
1 62802U 25016T   26027.57203796  .00000127  00000+0  17874-3 0  9997
2 62802  88.9733  98.3614 0018214 217.7416 142.2459 13.50991770 53415
